account_no,location_name,business_entity,postcode,address_line_1,address_line_2,town_city,logged_by
A500136,HEATHROW WDC HUB,1089.100.,SL3 8AQ,HURRICANE WAY,,SLOUGH,Admin
A5001609,LEEK DO,1122.100.,ST13 5DQ,STRANGMAN STREET,,LEEK,Admin
A5001614,STOKE ON TRENT DO,1124.100.,ST4 2AX,LEEK ROAD,,STOKE ON TRENT,Admin
A5001607,CHEADLE ST DO,1126.100.,ST10 1BA,WELL STREET,,STOKE ON TRENT,Admin
A5001612,STAFFORD DO,1128.100.,ST16 1AA,NEWPORT ROAD,,STAFFORD,Admin
A5001616,UTTOXETER DO,1132.100.,ST14 8HE,13-15 CARTER STREET,,UTTOXETER,Admin
A5001610,LONGTON DO,1135.100.,ST3 4PU,BENGRY ROAD,,STOKE ON TRENT,Admin
A5001608,KIDSGROVE DO,1139.100.,ST7 1YY,CONGLETON ROAD,,STOKE ON TRENT,Admin
A5001425,MILTON KEYNES HUB,114.100.,MK6 4AD,"DUNSBY ROAD,",,MILTON KEYNES,Admin
A5001428,MILTON KEYNES RTW,114.101.,MK6 4AD,"DUNSBY ROAD,",,MILTON KEYNES,Admin
A5001606,BURSLEM DO,1147.100.,ST6 4RG,UNIT 3 SCOTIA BUSINESS PARK,,STOKE ON TRENT,Admin
A5001194,EDINBURGH WEST DO,1172.100.,EH12 9PB,,21 SOUTH GYLE CRESCENT,EDINBURGH,Admin
A5001210,CARDIGAN DO,1173.100.,SA43 1BS,WELLINGTON ROAD,FINCHS SQUARE,CARDIGAN,Admin
A5001221,GORSEINON DO,1178.100.,SA4 9SA,4-5 SANDFORD LANE IND ESTATE,UNIT 4-5 LLWYN Y GRAIG,SWANSEA,Admin
A5001211,CARMARTHEN DO,1184.100.,SA31 2BG,UNITS 19-22 AVON TRADING PARK,STEPHENS WAY,CARMARTHEN,Admin
A5001212,CARMARTHEN RTW,1184.101.,SA31 2BG,3 QUEENS ROAD,STEPHENS WAY,CARMARTHEN,Admin
A5001282,MELKSHAM DO,1193.100.,SN12 6LU,31 CHURCH ST,,MELKSHAM,Admin
A5001213,HAVERFORDWEST DO,1205.100.,SA61 1XT,122 STATION ROAD,MERLINS BRIDGE,HAVERFORDWEST,Admin
A5001215,LLANDYSUL DO,1207.100.,SA44 4JG,27 BOURNEMOUTH ROAD,HOREB,LLANDYSUL,Admin
A5001225,NEATH DO,1216.100.,SA11 1LT,,20 WINDSOR ROAD,NEATH,Admin
A5001227,PORT TALBOT DO,1221.100.,SA13 1AA,,EAGLE STREET,PORT TALBOT,Admin
A5001223,LLANELLI DO,1228.100.,SA15 2SN,29 EAST STREET,OLD CASTLE ROAD,LLANELLI,Admin
A5001224,LLANELLI ST,1228.101.,SA15 2SN,,OLD CASTLE ROAD,LLANELLI,Admin
A5001216,PEMBROKE DOCK DO,1236.100.,SA72 6AJ,1-5 ALDER HILLS,LEWIS STREET,PEMBROKE DOCK,Admin
A5001226,PONTARDAWE DO,1237.100.,SA8 4EL,,ALLOY INDUSTRIAL ESTATE,SWANSEA,Admin
A500114,SWANSEA MC,1242.100.,SA1 1AA,SIEMANS WAY,,SWANSEA,Admin
A5001214,LAMPETER DO,1249.100.,SA48 7DZ,122 STATION ROAD,STATION TERRACE,LAMPETER,Admin
A5001222,LLANDEILO DO,1254.100.,SA19 7HR,10-12 SEAMOOR ROAD,BEECHWOOD INDUSTRIAL ESTATE,LLANDEILO,Admin
A5001243,WESTBURY DO,1290.100.,BA13 4EZ,KINGDOM AVENUE,,WESTBURY,Admin
A5001244,WELLS DO,1291.100.,BA5 2AH,WEST STREET,,WELLS,Admin
A500118,NORTH WEST MIDLANDS MC,1314.100.,WV1 1AA,1 SUN STREET,,WOLVERHAMPTON,Admin
A5001634,CARLTON DO,1320.100.,NG4 3JF,19 WESTDALE LANE,,NOTTINGHAM,Admin
A5001627,CLIFTON NG DO,1321.100.,NG11 8AA,,,,Admin
A5001631,EASTWOOD DO,1322.100.,NG16 3SB,,,,Admin
A5001628,GRANTHAM DO,1323.100.,NG31 6AA,,,,Admin
A5001636,HUCKNALL DO,1324.100.,NG15 7AA,59 HIGH STREET,,NOTTINGHAM,Admin
A5001632,KIRKBY IN ASHFIELD DO,1325.100.,NG17 7AA,,,,Admin
A5001637,LONG EATON DO,1326.100.,NG10 1AA,12 TAMWORTH ROAD,,NOTTINGHAM,Admin
A5001629,NEWARK DO,1328.100.,NG24 4XE,"24 PELHAM STREET,",,NEWARK,Admin
A5001639,NOTTINGHAM SOUTH DO,1329.100.,NG2 3EE,11 CLARKE ROAD,,NOTTINGHAM,Admin
A5001640,NOTTINGHAM CITY DO,1331.100.,NG1 1AA,1 LOWER PARLIAMENT STREET,,NOTTINGHAM,Admin
A5001635,GLAISDALE PARKWAY DO,1332.100.,NG8 4GB,GLAISDALE PARKWAY,,NOTTINGHAM,Admin
A5001625,SLEAFORD AO,1333.101.,NG34 7AA,"STATION ROAD,",,SLEAFORD,Admin
A5001633,SUTTON IN ASHFIELD DO,1335.100.,NG17 1AA,,,,Admin
A5001644,NOTTINGHAM MC,1338.100.,NG9 2RP,PADGE ROAD,,NOTTINGHAM,Admin
A5001641,NOTTINGHAM RTW,1338.101.,NG9 2RP,PADGE ROAD,,NOTTINGHAM,Admin
A5001638,NOTTINGHAM NORTH DO,1339.100.,NG5 6DD,SIR JOHN ROBINSON WAY,,NOTTINGHAM,Admin
A5001528,COVENTRY NATIONAL HUB,1341.100.,CV3 4PF,SISKIN PARKWAY WEST,,COVENTRY,Admin
A5001526,COVENTRY INTERNATIONAL HUB,1341.101.,CV3 4PF,SISKIN PARKWAY WEST,,COVENTRY,Admin
A5001529,COVENTRY NATIONAL RTW,1341.102.,CV3 4PF,SISKIN PARKWAY WEST,,COVENTRY,Admin
A5001518,BRACKLEY DO,1343.100.,NN13 7AA,19 HIGH STREET,,BRACKLEY,Admin
A500145,COALVILLE DO,1347.100.,LE67 3ET,2 ASHBY ROAD,,COALVILLE,Admin
A5001519,CORBY DO,1348.100.,NN17 5ZZ,CRUCIBLE ROAD,,CORBY,Admin
A5001521,DAVENTRY DO,1349.100.,NN11 4GA,VICAR LANE,,DAVENTRY,Admin
A500147,HINCKLEY DO,1351.100.,LE10 1BA,22 STATION ROAD,,HINCKLEY,Admin
A5001544,KETTERING DO,1353.100.,NN16 8AA,"17 LOWER STREET,",,KETTERING,Admin
A500151,LEICESTER NORTH DO,1358.100.,LE4 5HQ,91 LOUGHBOROUGH ROAD,,LEICESTER,Admin
A500148,LUTTERWORTH DO,1363.100.,LE17 4JA,BILTON WAY,,LUTTERWORTH,Admin
A500143,MELTON MOWBRAY DO,1368.100.,LE13 1RL,ACRES RISE,,MELTON MOWBRAY,Admin
A5001522,NORTHAMPTON CROW LANE DO,1373.100.,NN3 9UB,JACKDAW CLOSE,,NORTHAMPTON,Admin
A500144,OAKHAM DO,1375.100.,LE15 6DX,"GRD FLR, BMENT",1ST FLOOR 19-33 MARKET PLACE,OAKHAM,Admin
A500150,WIGSTON DO,1381.100.,LE18 2AL,LONG STREET,,WIGSTON,Admin
A500137,LEICESTER DO,1386.100.,LE19 1TH,CENTURION WAY,,LEICESTER,Admin
A500142,LEICESTER RTW ,1386.101.,LE19 1TH,CENTURION WAY,,LEICESTER,Admin
A5001545,WELLINGBOROUGH DO,1387.100.,NN8 1AQ,"212 MIDLAND ROAD,",,WELLINGBOROUGH,Admin
A500146,EARL SHILTON DO,1389.100.,LE9 7GY,19 OAKS WAY,,LEICESTER,Admin
A5001585,CATERHAM DO,1439.100.,CR3 6XX,"102 GODSTONE ROAD,",,CATERHAM,Admin
A5001593,CROYDON MC,1441.100.,CR9 4AA,BEDDINGTON FARM ROAD,,CROYDON,Admin
A5001586,MITCHAM DO,1445.100.,CR4 3XT,"BOUNDARY BUSINESS COURT,",,MITCHAM,Admin
A500117,GATWICK MC,1494.100.,RH10 9AA,JAMES WATT WAY,,CRAWLEY,Admin
A5001568,IPSWICH LD,152.100.,IP3 9SL,30 CENTRAL AVENUE,,IPSWICH,Admin
A5001542,SUNDERLAND CALL CENTRE OFF,1533.100.,SR3 3XW,UNIT 2 ADMIRAL WAY,,SUNDERLAND,Admin
A5001501,BARNSLEY CALL CENTRE OFF,1534.100.,S73 0UF,DEARNE HOUSE,,BARNSLEY,Admin
A500125,CHELMSFORD MC,1597.100.,CM2 5AA,WINSFORD WAY,,CHELMSFORD,Admin
A500126,CHELMSFORD RTW,1597.101.,CM2 5AA,WINSFORD WAY,,CHELMSFORD,Admin
A500124,CHELMSFORD DO,1598.100.,CM2 6ZZ,MONTROSE ROAD,,CHELMSFORD,Admin
A5001548,BECCLES DO,1608.100.,NR34 9AA,SMALLGATE,,BECCLES,Admin
A5001574,BRANDON DO,1609.100.,IP27 0AJ,14 HIGH STREET,,BRANDON,Admin
A5001549,BUNGAY DO,1610.100.,NR35 1AA,42 EARSHAM STREET,,BUNGAY,Admin
A5001565,MILDENHALL DO,1611.100.,IP28 7AW,HOLBORN AVENUE,,BURY ST EDMUNDS,Admin
A5001550,DEREHAM DO,1614.100.,NR19 2AA,QUEBEC STREET,,DEREHAM,Admin
A5001573,DISS DO,1615.100.,IP22 4AA,7 MARKET PLACE,,DISS,Admin
A5001570,DISS RTW,1616.100.,IP22 4AN,CHAPEL STREET,,DISS,Admin
A5001551,FAKENHAM DO,1618.100.,NR21 8AA,1 HOLT ROAD,,FAKENHAM,Admin
A5001571,FELIXSTOWE DO,1619.100.,IP11 7AA,143 HAMILTON ROAD,,FELIXSTOWE,Admin
A5001552,GREAT YARMOUTH DO,1620.100.,NR30 1AA,6 NORTH QUAY,,GREAT YARMOUTH,Admin
A5001553,GREAT YARMOUTH RTW,1620.101.,NR30 1AA,6 NORTH QUAY,,GREAT YARMOUTH,Admin
A5001572,HADLEIGH DO,1621.100.,IP7 5AA,7 CHURCH STREET,,IPSWICH,Admin
A5001554,HOLT DO,1623.100.,NR25 6AA,1 CROMER ROAD,,HOLT,Admin
A5001569,IPSWICH DO,1625.100.,IP1 1AA,COMMERCIAL ROAD,,IPSWICH,Admin
A5001546,NORTH WALSHAM DO,1629.100.,NR28 9AA,NEW ROAD,,NORTH WALSHAM,Admin
A5001559,NORWICH MC,1631.100.,NR1 1AA,13-17 THORPE ROAD,,NORWICH,Admin
A5001560,NORWICH RTW,1631.101.,NR1 1AA,13-17 THORPE ROAD,,NORWICH,Admin
A5001566,SAXMUNDHAM DO,1632.100.,IP17 1AA,48 HIGH STREET,,SAXMUNDHAM,Admin
A5001567,STOWMARKET DO,1634.100.,IP14 1AA,62 IPSWICH STREET,,STOWMARKET,Admin
A5001563,THETFORD DO,1635.100.,IP24 2AA,1 MARKET PLACE,,THETFORD,Admin
A5001564,WOODBRIDGE RTW,1636.101.,IP12 4AA,9 CUMBERLAND STREET,,WOODBRIDGE,Admin
A5001561,WYMONDHAM DO,1637.100.,NR18 0AA,18 MIDDLETON STREET,,WYMONDHAM,Admin
A5001556,LOWESTOFT DO,1638.100.,NR32 2ER,UNITS 2 AND 3 BARNARDS WAY,,LOWESTOFT,Admin
A5001557,NORWICH DO,1640.100.,NR7 8ZZ,10-20 ROUNDTREE WAY,,NORWICH,Admin
A5001418,AMPTHILL DO,1643.100.,MK45 2QW,UNIT 1 AMPTHILL BUSINESS PARK,,BEDFORD,Admin
A5001419,BEDFORD DO,1644.100.,MK40 1AA,FORD END ROAD,,BEDFORD,Admin
A5001420,BEDFORD ST,1644.101.,MK40 1AA,FORD END ROAD,,BEDFORD,Admin
A5001427,MILTON KEYNES ST,1646.100.,MK1 1JN,"DAWSON ROAD,",,MILTON KEYNES,Admin
A5001423,BUCKINGHAM DO,1648.100.,MK18 1AA,MARKET HILL,,BUCKINGHAM,Admin
A5001424,BUCKINGHAM ST,1648.101.,MK18 1AA,"MARKET HILL,",,BUCKINGHAM,Admin
A5001426,MILTON KEYNES KILN FARM DO,1654.100.,MK11 3AA,"2 CARTERS LANE,",,MILTON KEYNES,Admin
A5001430,WINSLOW SUDO,1657.100.,MK18 3DG,"61 HIGH STREET,",,BUCKINGHAM,Admin
A5001558,NORWICH LD,167.100.,NR2 4HJ,112-118 BARKER STREET,,NORWICH,Admin
A500122,PETERBOROUGH MC/MED,1683.100.,PE4 5PE,PAPYRUS ROAD,,PETERBOROUGH,Admin
A500123,PETERBOROUGH RTW,1683.101.,PE4 5PE,PAPYRUS ROAD,,PETERBOROUGH,Admin
A5001197,DAGENHAM DO,1688.100.,RM9 5UH,BOXOLL ROAD,,DAGENHAM,Admin
A5001198,DAGENHAM GAR,1688.101.,RM9 5UH,BOXOLL ROAD,,DAGENHAM,Admin
A5001200,HAROLD HILL DO,1691.100.,RM3 8YN,TROWBRIDGE ROAD,,ROMFORD,Admin
A5001204,HORNCHURCH DO,1692.100.,RM12 4AZ,154 ABBS CROSS GARDENS,,HORNCHURCH,Admin
A5001203,RAINHAM RM DO,1695.100.,RM13 9TD,32 WENNINGTON ROAD,,RAINHAM,Admin
A5001208,SOUTH OCKENDON DO,1697.100.,RM15 5DU,DERRY AVENUE,,SOUTH OCKENDON,Admin
A5001201,UPMINSTER DO,1698.100.,RM14 2AS,58 CORBETS TEY ROAD,,UPMINSTER,Admin
A5001202,UPMINSTER ST,1698.101.,RM14 2AS,58 CORBETS TEY ROAD,,UPMINSTER,Admin
A5001196,ROMFORD MC,1700.100.,RM7 0AB,QUEEN ELIZABETH HOUSE,,ROMFORD,Admin
A5001357,ROMFORD RTW,1700.101.,RM7 0AB,QUEEN ELIZABETH HOUSE,,ROMFORD,Admin
A5001302,CARLISLE VOC,174.100.,CA3 0PP,BANKEND ROAD,KINGSTON IND ESTATE,CARLISLE,Admin
A500119,PRINCESS ROYAL RDC,1764.100.,NW10 7RH,NORTH CIRCULAR ROAD,,LONDON,Admin
A5001431,DEPTFORD DO,1792.100.,SE8 5HY,UNIT 11 & 12 SEGRO BUSNESS PARK,BLACKHORSE ROAD,DEPTFORD,Admin
A5001276,ACTON DO,1820.100.,W3 8RL,229 BOLLO LANE,,LONDON,Admin
A500134,MOUNT PLEASANT MC,1828.100.,EC1A 1BB,FARRINGDON ROAD,,LONDON,Admin
A5001615,STONE DO,189.100.,ST15 0YY,OPAL WAY,,STONE,Admin
A500199,PONTYPRIDD DO,190.100.,CF37 1AA,MARITIME INDUSTRIAL ESTATE,,PONTYPRIDD,Admin
A5001611,NEWCASTLE UNDER LYME DO,192.100.,ST5 6ED,1 BROCK WAY,,NEWCASTLE,Admin
A5001286,NEWPORT WEST DO,2.100.,NP20 5XX,FACTORY ROAD,,NEWPORT,Admin
A5001287,NEWPORT WEST RTW,2.101.,NP20 5XX,FACTORY ROAD,,NEWPORT,Admin
A500113,BIRMINGHAM MC,203.100.,B6 4AA,ST STEPHENS STREET,,BIRMINGHAM,Admin
A5001437,BATLEY DO,221.100.,WF17 6GG,GRANGE VALLEY ROAD,,,Admin
A5001233,PARKSTONE DO,232.100.,BH14 0EL,27 BOURNEMOUTH ROAD,,POOLE,Admin
A5001240,WESTBOURNE DO,234.100.,BH4 9AP,10-12 SEAMOOR ROAD,,BOURNEMOUTH,Admin
A5001234,POOLE ALDER HILLS DO,237.100.,BH12 4AH,1-5 ALDER HILLS,,POOLE,Admin
A5001235,POOLE DO,238.100.,BH15 1AA,HILL STREET,,POOLE,Admin
A5001231,NEW MILTON DO,241.100.,BH25 6LJ,122 STATION ROAD,,NEW MILTON,Admin
A5001232,NEW MILTON GAR,241.101.,BH25 6LJ,122 STATION ROAD,,NEW MILTON,Admin
A5001646,ASHTON UNDER LYNE DO,2422.100.,OL6 7PW,35 FLEET STREET,,ASHTON UNDER LYNE,Admin
A5001647,OLDHAM DO,2426.100.,OL1 1AA,21 HAMILTON STREET,,OLDHAM,Admin
A5001645,ROCHDALE DO,2427.100.,OL16 5QX,AINSWORTH STREET,,ROCHDALE,Admin
A5001312,WIGTON DO,2429.100.,CA7 9BB,STATION ROAD,,WIGTON,Admin
A5001310,PENRITH DO,2430.100.,CA11 7AA,CROWN SQUARE,,PENRITH,Admin
A5001304,APPLEBY DOOMGATE GAR,2431.100.,CA16 6RB,DOOMGATE,,APPLEBY IN WESTMORELAND,Admin
A5001307,KESWICK DO,2432.100.,CA12 4PE,PENRITH ROAD,,KESWICK,Admin
A5001308,KIRKBY STEPHEN MELLBECKS GAR,2433.100.,CA17 4QA,VICTORIA SQUARE,,KIRKBY STEPHEN,Admin
A5001311,WHITEHAVEN DO,2435.100.,CA28 7AA,NEWTOWN,,WHITEHAVEN,Admin
A5001305,BRAMPTON DO,2436.100.,CA8 1UP,CRAW HALL,,BRAMPTON,Admin
A500108,CARLISLE MC,2437.100.,CA1 1AA,JUNCTION STREET,,CARLISLE,Admin
A5001300,CARLISLE DO,2437.101,CA1 1AA,JUNCTION STREET,,CARLISLE,Admin
A5001303,CARLISLE RTW,2437.104.,CA1 1AA,JUNCTION STREET,,CARLISLE,Admin
A5001306,EGREMONT DO,2438.100.,CA22 2RB,UNIT 4 BRIDGE END IND EST,,EGREMONT,Admin
A5001313,WORKINGTON RTW,2439.100.,CA14 2AA,UNIT 3 DERWENT DRIVE,,WORKINGTON,Admin
A5001342,EXETER RTW,244.100.,EX2 7LL,CHELSEA TRADING ESTATE,,EXETER,Admin
A5001309,MARYPORT DO,2440.100.,CA15 8NF,22E SOLWAY TRADING ESTATE,,MARYPORT,Admin
A5001271,PWLLHELI DO,2444.100.,LL53 5ND,LOWER CARDIFF ROAD,,PWLLHELI,Admin
A5001264,BANGOR DO,2445.100.,LL57 2TZ,EUSTON ROAD,,BANGOR,Admin
A5001269,LLANGEFNI DO,2446.100.,LL77 7AA,INDUSTRIAL ESTATE ROAD,,LLANGEFNI,Admin
A5001272,PWLLHELI RTW,2447.100.,LL53 5YT,GLANYDON INDUSTRIAL ESTATE,,PWLLHELI,Admin
A5001270,PORTHMADOG DO,2448.100.,LL49 9HF,PENAMSER ROAD,,PORTHMADOG,Admin
A5001266,CAERNARFON DO,2449.100.,LL55 2BU,CIBYN INDUSTRIAL ESTATE,,CAERNARFON,Admin
A5001238,SWANAGE DO,245.100.,BH19 1AA,30-32 KINGS ROAD EAST,,SWANAGE,Admin
A5001261,MOLD ST,2451.101.,CH7 1AA,18 EARL ROAD,,MOLD,Admin
A5001373,CHESTER DO,2454.100.,CH1 3AA,STATION ROAD,,CHESTER,Admin
A5001374,CHESTER RTW,2454.101.,CH1 3AA,"STATION ROAD,",,CHESTER,Admin
A5001273,RHYL DO,2455.100.,LL18 1AA,2 VALE ROAD,,RHYL,Admin
A5001274,RHYL DO (PRESTATYN),2455.101.,LL18 1AA,2 VALE ROAD,,RHYL,Admin
A5001267,COLWYN BAY DO,2458.100.,LL29 8HY,46 PRINCES DRIVE,,COLWYN BAY,Admin
A5001275,WREXHAM DO,2463.100.,LL11 1AA,94 REGENT STREET,,WREXHAM,Admin
A5001246,LLANGOLLEN SUDO,2464.100.,LL20 8RW,33 BERWYN STREET,,LLANGOLLEN,Admin
A5001247,CORWEN DO,2465.100.,LL21 0DJ,GREEN LANE,,CORWEN,Admin
A5001326,BALA DO,2469.100.,LL23 7HA,UNIT 8 INDUSTRIAL ESTATE,,BALA,Admin
A5001230,FERNDOWN DO,247.100.,BH22 9RU,3 QUEENS ROAD,,FERNDOWN,Admin
A5001328,DOLGELLAU DO,2471.100.,LL40 1LP,MEYRICK STREET,,DOLGELLAU,Admin
A5001259,FLINT DO,2474.100.,CH6 5YJ,UNIT F37-F38 ABER ROAD,ASHMOUNT ENTERPRISE PARK,FLINT,Admin
A5001365,CHESTER MC,2475.100.,CH1 4PA,JUPITER DRIVE,,CHESTER,Admin
A5001268,LLANDUDNO DO,2477.100.,LL30 1QX,MAESDU ROAD,,LLANDUDNO,Admin
A5001241,WIMBORNE DO,249.100.,BH21 1AA,29 EAST STREET,,WIMBORNE,Admin
A500133,WARRINGTON RTW,2494.100.,WA2 8NX,KERFOOT STREET,,,Admin
A500130,WARRINGTON DO,2496.100.,WA5 1WA,MILNER STREET,,,Admin
A500131,WARRINGTON RAIL HUB,2498.100.,WA2 8AA,HAWLEYS LANE,,,Admin
A500132,WARRINGTON MC,2499.100.,WA5 3XA,ORION BOULEVARD,,,Admin
A5001239,WAREHAM DO,250.100.,BH20 4AA,4-5 SANDFORD LANE IND ESTATE,,WAREHAM,Admin
A5001263,WALLASEY *VAC*OFF,2510.100.,CH45 5AA,,,,Admin
A5001260,HESWALL DO,2516.100.,CH60 0AA,25 PENSBY ROAD,,HESWALL,Admin
A5001262,NEW FERRY DO,2524.100.,CH62 2AA,41A NEW CHESTER ROAD,,41A NEW CHESTER ROAD,Admin
A5001257,ELLESMERE PORT DO,2528.100.,CH65 5AA,UNIT 13-14 ROSSMORE TRADING ESTATE,,ELLESMERE PORT,Admin
A5001255,BIRKENHEAD DO,2533.100.,CH41 4AA,PACIFIC ROAD,,BIRKENHEAD,Admin
A500111,MANCHESTER MC,2559.100.,M4 5AA,77 OLDHAM ROAD,,MANCHESTER,Admin
A5001319,LANCASTER DO,2589.100.,LA1 1AA,FENTON STREET,,LANCASTER,Admin
A5001315,CARNFORTH DO,2591.100.,LA5 9EP,HUNTER STREET,,CARNFORTH,Admin
A5001316,GRANGE OVER SANDS DO,2592.100.,LA11 6AA,MAIN STREET,,GRANGE OVER SANDS,Admin
A5001317,KENDAL DO,2594.100.,LA9 4AA,75 STRICKLANDGATE,,KENDAL,Admin
A5001314,BARROW IN FURNESS DO,2595.100.,LA14 1AA,142 ABBEY ROAD,,BARROW IN FURNESS,Admin
A5001320,MILLOM DO,2596.100.,LA18 4AA,LAPSTONE ROAD,,MILLOM,Admin
A5001321,ULVERSTON DO,2597.100.,LA12 7AA,COUNTY SQUARE,,ULVERSTON,Admin
A5001378,GARSTANG DO,2598.100.,PR3 1AG,"CHURCH STREET,",,PRESTON,Admin
A5001379,LONGRIDGE DO,2599.100.,PR3 3AA,GREEN LANE,,PRESTON,Admin
A5001381,PRESTON DO,2603.100.,PR1 1AD,CHRISTIAN ROAD,,PRESTON,Admin
A5001377,LEYLAND DO,2604.100.,PR25 2ZB,BRACONASH ROAD,,LEYLAND,Admin
A5001383,PRESTON MC,2612.100.,PR2 9GG,PITTMAN WAY,,PRESTON,Admin
A5001385,PRESTON RTW,2612.101.,PR2 9GG,PITTMAN WAY,,PRESTON,Admin
A5001384,PRESTON SOUTH DO,2613.100.,PR5 6JY,WHITEFIELD MEADOW,,PRESTON,Admin
A5001318,WINDERMERE DO,2614.100.,LA23 1AA,TROUTBECK BRIDGE,,WINDERMERE,Admin
A5001376,CHORLEY DO,2617.100.,PR6 0UU,CHORLEY EAST BUSINESS CENTRE,,CHORLEY,Admin
A5001386,SOUTHPORT DO,2618.100.,PR8 4ZZ,"SOUTHPORT BUSINESS PARK,",,SOUTHPORT,Admin
A5001254,SHREWSBURY ST,2620.100.,SY1 1AA,CASTLE FOREGATE,,SHREWSBURY,Admin
A5001250,SHREWSBURY DO,2620.101.,SY1 1AA,CASTLE FOREGATE,,SHREWSBURY,Admin
A5001332,WELSHPOOL DO,2624.100.,SY21 7AF,SEVERN STREET,,WELSHPOOL,Admin
A5001253,WHITCHURCH DO,2627.100.,SY13 1EW,ROSEMARY LANE,,WHITCHURCH,Admin
A5001249,OSWESTRY RTW,2628.100.,SY10 8GA,MILE OAK INDUSTRIAL ESTATE,,OSWESTRY,Admin
A5001329,LLANDRINDOD WELLS DO,2629.100.,LD1 5AP,STATION CRESCENT,,LLANDRINDOD WELLS,Admin
A5001280,NEWTOWN DO,2633.100.,SY16 1AG,SHORT BRIDGE STREET,,NEWTOWN,Admin
A5001281,NEWTOWN GAR,2633.101.,SY16 1AG,SHORT BRIDGE STREET,,NEWTOWN,Admin
A5001279,LUDLOW DO,2645.100.,SY8 1DD,LINGEN ROAD,,LUDLOW,Admin
A5001278,CRAVEN ARMS DO,2647.100.,SY7 9QA,UNIT 1 CRAVEN ARMS BUSINESS PARK,,CRAVEN ARMS,Admin
A5001331,MACHYNLLETH DO,2648.100.,SY20 8AH,12-15 TREOWAIN INDUSTRIAL ESTATE,,MACHYNLLETH,Admin
A5001248,OSWESTRY DO,2649.100.,SY10 8GP,MILE OAK INDUSTRIAL ESTATE,,OSWESTRY,Admin
A5001449,SKIPTON DO/RTW,2657.100.,BD23 2DG,SANDYLANDS BUSINESS CENTRE,,SKIPTON,Admin
A5001450,WHARFEDALE SUDO,2658.100.,BD23 5DG,HEBDEN ROAD,,SKIPTON,Admin
A5001448,RIBBLESDALE SUDO,2659.100.,BD24 9DL,2A THE SIDINGS,,SETTLE,Admin
A5001237,RINGWOOD DO,266.100.,BH24 3QQ,2-5 HEADLANDS BUSINESS PARK,,RINGWOOD,Admin
A5001590,HUDDERSFIELD DO,2660.100.,HD1 1AA,"NORTHUMBERLAND STREET,",,HUDDERSFIELD,Admin
A5001589,HOLMFIRTH DO,2661.100.,HD9 1AA,"STATION ROAD,",,HOLMFIRTH,Admin
A5001471,HALIFAX DO,2662.100.,HX1 1AA,"5 GAOL LANE,",,HALIFAX,Admin
A5001591,SCISSETT DO,2664.100.,S35 1AA,"57-59 BURNCROSS ROAD,",,SHEFFIELD,Admin
A5001588,BRIGHOUSE DO,2665.100.,HD6 1AA,"DYEHOUSE LANE,",,BRIGHOUSE,Admin
A5001592,SLAITHWAITE DO,2666.100.,HD7 5AA,"SPA FIELDS INDUSTRIAL ESTATE,",,HUDDERSFIELD,Admin
A5001445,BRADFORD NORTH DO,2668.100.,BD1 4RS,INKERSLEY ROAD,,BRADFORD,Admin
A5001447,BRADFORD VALLEY DO,2668.101.,BD1 4RD,INKERSLEY ROAD,,BRADFORD,Admin
A5001446,BRADFORD SOUTH DO,2669.100.,BD5 7RS,STONE ARCHES,,BRADFORD,Admin
A500189,ABERDARE DO,267.100.,CF44 6ZZ,ABERAMAN INDUSTRIAL ESTATE,,ABERDARE,Admin
A5001456,NORTHALLERTON DO,2670.100.,DL10 4TE,156 HIGH STREET,,NORTHALLERTON,Admin
A5001454,LEYBURN DO,2672.100.,DL8 5AA,MOOR ROAD,,LEYBURN,Admin
A5001457,SPENNYMOOR DO,2673.100.,DL16 6AE,7 FESTIVAL WALK,,SPENNYMOOR,Admin
A5001455,NEWTON AYCLIFFE DO,2674.100.,DL5 6EL,HILTON ROAD,,NEWTON AYCLIFFE,Admin
A5001452,DARLINGTON DO,2675.100.,DL1 1AA,2 ST CUTHBERTS WAY,,DARLINGTON,Admin
A5001453,DARLINGTON RTW,2676.100.,DL3 0QG,FAVERDALE WEST,,DARLINGTON,Admin
A5001541,HOUGHTON LE SPRING DO,2678.100.,DH4 5EL,SCOTT STREET,,HOUGHTON LE SPRING,Admin
A5001540,DURHAM DO,2679.100.,DH1 1SE,BELMONT INDUSTRIAL ESTATE,,DURHAM,Admin
A5001581,MIDDLESBROUGH DO,2683.100.,TS1 1AA,"2 CANNON PARK WAY,",,MIDDLESBROUGH,Admin
A5001583,SKELTON IN CLEVELAND DO,2684.100.,TS12 2NW,"SKELTON INDUSTRIAL ESTATE,",,SALTBURN BY THE SEA,Admin
A5001578,COULBY NEWHAM DO,2685.100.,TS8 0UD,"RIDGEWAY, MIDDLESBROUGH",,,Admin
A5001580,HARTLEPOOL DO,2686.100.,TS24 7AA,"CLARK STREET, HARTLEPOOL",,HARTLEPOOL,Admin
A5001584,STOCKTON ON TEES DO,2687.100.,TS19 0BJ,"ORDE WINGATE WAY,",,STOCKTON ON TEES,Admin
A5001459,RICHMOND DL DO,2688.100.,DL10 4TE,GALLOWFIELDS TRADING ESTATE,,RICHMOND,Admin
A5001458,WEAR VALLEY DO,2689.100.,DL14 7AL,BOB HARDISTY DRIVE,,BISHOP AUCKLAND,Admin
A5001451,BARNARD CASTLE DO,2690.100.,DL12 8AX,HARMIRE ENTERPRISE PARK,,BARNARD CASTLE,Admin
A5001579,GUISBOROUGH DO,2691.100.,TS14 7GB,"MORGAN DRIVE,",,GUISBOROUGH,Admin
A5001582,REDCAR DO,2692.100.,TS10 5RD,"MALMO COURT,",,REDCAR,Admin
A500160,HEXHAM DO,2694.100.,NE46 4JA,BRIDGE END INDUSTRIAL ESTATE,,HEXHAM,Admin
A5001467,SCUNTHORPE DO,2696.100.,DN15 7AA,CHURCH LANE,,SCUNTHORPE,Admin
A5001443,BRIGG DO,2697.100.,DN20 8EE,26 BIGBY STREET,,BRIGG,Admin
A5001620,LOUTH DO,2698.100.,LN11 9ND,15 EASTGATE,,LOUTH,Admin
A5001465,IMMINGHAM DO,2701.100.,DN40 1BL,MIDDLEPLATT ROAD,,IMMINGHAM,Admin
A5001460,DONCASTER DO,2703.100.,DN4 5NE,MIDDLE BANK,,DONCASTER,Admin
A5001444,GOOLE DO,2704.100.,DN14 6DA,LARSEN ROAD,,GOOLE,Admin
A5001617,ALFORD DO,2705.100.,LN13 9ET,BEECHINGS WAY,,ALFORD,Admin
A5001466,RETFORD DO,2706.100.,DN22 7GB,HALLCROFT INDUSTRIAL ESTATE,,RETFORD,Admin
A5001464,GRIMSBY RTW,2708.100.,DN31 2TG,UNIT 18 ESTATE ROAD 8,,GRIMSBY,Admin
A5001462,GAINSBOROUGH DO,2710.100.,DN21 2HR,14 NORTH STREET,,GAINSBOROUGH,Admin
A5001618,LINCOLN DO,2711.100.,LN5 7NU,FIRTH ROAD,,LINCOLN,Admin
A5001621,MARKET RASEN DO,2712.100.,LN8 3HA,GALLAMORE LANE,,MARKET RASEN,Admin
A5001442,BARTON UPON HUMBER DO,2713.100.,DN18 5RP,2B HARRIER ROAD,,BARTON UPON HUMBER,Admin
A5001475,ILKLEY DO,2715.100.,LS29 8SS,"COW PASTURE ROAD,",,ILKLEY,Admin
A5001481,MORLEY DO,2716.100.,LS27 8TB,"129A QUEEN STREET,",,LEEDS,Admin
A5001482,PUDSEY DO,2718.100.,LS28 7LB,"37 CHURCH LANE,",,PUDSEY,Admin
A5001473,BRAMLEY DO,2719.100.,LS13 2UB,WATERLOO WAY,,LEEDS,Admin
A500152,DORSET MC,272.100.,BH17 0AA,WITNEY ROAD,,POOLE,Admin
A5001474,HOLBECK DO,2720.100.,LS11 9ND,NEW PRINCESS STREET,,LEEDS,Admin
A5001476,IRELAND WOOD DO,2722.100.,LS16 6NT,"IVESON APPROACH,",,LEEDS,Admin
A5001480,MOORTOWN DO,2723.100.,LS17 7HN,2 NURSERY LANE,,LEEDS,Admin
A5001485,TONG ROAD DO,2724.100.,LS12 4JG,"UPPER WORTLEY ROAD,",,LEEDS,Admin
A5001486,WETHERBY DO,2728.100.,LS22 6UT,42 NORTH STREET,,WETHERBY,Admin
A5001470,RIPON DO,2731.100.,HG4 1AA,1 FINKLE STREET,,RIPON,Admin
A5001484,SHERBURN DO,2734.100.,LS25 6ES,9 MOOR LANE TRADING ESTATE,,LEEDS,Admin
A5001468,HARROGATE DO,2735.100.,HG1 4EE,3 CLARO COURT,,HARROGATE,Admin
A5001469,HARROGATE RTW,2735.101.,HG1 4EE,3 CLARO COURT,,HARROGATE,Admin
A5001483,SEACROFT DO,2736.100.,LS14 2SD,"COAL ROAD,",,LEEDS,Admin
A5001472,AIREBOROUGH DO,2738.100.,LS19 7LX,WESTFIELD MILLS,,LEEDS,Admin
A5001228,BOURNEMOUTH DO,274.100.,BH1 1AA,WELLINGTON ROAD,,BOURNEMOUTH,Admin
A5001439,PONTEFRACT DO,2743.100.,WF8 1AA,"2 TRINITY STREET, PONTEFRACT",,,Admin
A5001440,WAKEFIELD DO,2744.100.,WF1 1AA,"2 DENBY DALE ROAD, WAKEFIELD",,,Admin
A500115,LEEDS MC,2747.100.,LS10 1AZ,LEODIS WAY,,LEEDS,Admin
A5001441,WHITWOOD DO,2749.100.,,,,,Admin
A500135,YORKSHIRE PH,2751.100.,WF6 2XX,SILKSTONE HOUSE,EXPRESS WAY,NORMANTON,Admin
A500161,MORPETH DO,2752.100.,NE61 1AA,18-22 OLDGATE,,MORPETH,Admin
A5001165,BERWICK UPON TWEED DO,2754.100.,TD15 1AA,23-33 WOOLMARKET,,BERWICK UPON TWEED,Admin
A500155,ASHINGTON DO,2755.100.,NE63 0LA,4 ARMSTRONG WAY,,ASHINGTON,Admin
A500154,ALNWICK DO,2756.100.,NE66 2DD,GREENSFIELD ESTATE,,ALNWICK,Admin
A500159,HEATON DO,2757.100.,NE6 1AA,HEATON ROAD,,NEWCASTLE UPON TYNE,Admin
A500163,NEWCASTLE WEST DO,2759.100.,NE5 2AA,SLATYFORD LANE,,NEWCASTLE UPON TYNE,Admin
A500156,CRAMLINGTON DO,2768.100.,NE23 1DJ,CROWHALL LANE,,CRAMLINGTON,Admin
A500162,NEWCASTLE UPON TYNE CITY DO,2769.100.,NE1 1AD,FORTH STREET,,NEWCASTLE UPON TYNE,Admin
A500164,PRUDHOE DO,2770.100.,NE42 6QG,7C-7D EARLS COURT,,PRUDHOE,Admin
A5001539,DERWENTSIDE DO,2771.100.,DH8 7RU,LEADGATE INDUSTRIAL ESTATE,,CONSETT,Admin
A500138,TYNESIDE MC,2772.100.,NE11 0YY,LINDISFARNE HOUSE EARLSWAY,,GATESHEAD,Admin
A500139,TYNESIDE RTW,2772.101.,NE11 0YY,LINDISFARNE HOUSE EARLSWAY,,GATESHEAD,Admin
A5001543,SUNDERLAND DO,2776.100.,SR5 2TG,9 AND 10 WEARFIELD,,SUNDERLAND,Admin
A5001487,SHEFFIELD CITY DO/OFF/RET,2779.100.,S1 1AA,POND STREET,,SHEFFIELD,Admin
A500104,SHEFFIELD NORTH EAST DO,2781.100.,S5 0QH,836 BARNSLEY ROAD,,SHEFFIELD,Admin
A5001488,SHEFFIELD SOUTH EAST DO,2784.100.,S12 2AF,PIT LANE,,SHEFFIELD,Admin
A5001502,WORKSOP DO,2789.100.,S80 1AA,RYTON STREET,,WORKSOP,Admin
A5001498,ROTHERHAM DO,2790.100.,S60 1AA,MAIN STREET,,ROTHERHAM,Admin
A5001494,BOLSOVER DO,2791.100.,S44 6PD,HIGH STREET,,CHESTERFIELD,Admin
A5001500,BARNSLEY DO,2793.100.,S70 1AA,PITT STREET,,BARNSLEY,Admin
A5001489,HALFWAY DO,2795.100.,S20 3AA,UNIT B HOLBROOK GREEN,,SHEFFIELD,Admin
A5001491,STOCKSBRIDGE DO,2796.100.,S36 1AA,43 VICTORIA STREET,,SHEFFIELD,Admin
A5001490,DINNINGTON DO,2797.100.,S25 4AA,HOUGHTON ROAD,,SHEFFIELD,Admin
A500101,SHEFFIELD MC,2798.100.,S9 2XX,BRIGHTSIDE LANE,,SHEFFIELD,Admin
A5001503,SHEFFIELD RTW,2798.101.,S9 2XX,BRIGHTSIDE LANE,,SHEFFIELD,Admin
A5001493,STAVELEY DO,2799.100.,S43 3YL,DEEPDALE CLOSE,,CHESTERFIELD,Admin
A5001497,SHEFFIELD NORTH DO,2800.100.,S6 2NT,CAPEL STREET,,SHEFFIELD,Admin
A5001434,HULL MALMO ROAD DO,2808.100.,HU7 0AA,MALMO ROAD,,HULL,Admin
A5001433,HULL CENTRAL DO,2809.100.,HU9 1AA,ST PETER STREET,,HULL,Admin
A5001510,SCARBOROUGH DO,2810.100.,YO11 1AA,11-15 ABERDEEN WALK,,SCARBOROUGH,Admin
A5001506,BRIDLINGTON DO,2811.100.,YO15 2AA,15-17 QUAY ROAD,,BRIDLINGTON,Admin
A5001508,MALTON DO,2813.100.,YO17 7HS,36-38 WHEELGATE,,MALTON,Admin
A5001514,WHITBY DO,2814.100.,YO21 3ED,26 CRESCENT AVENUE,,WHITBY,Admin
A5001511,SCARBOROUGH RTW,2815.100.,YO12 7PN,WREA LANE,,SCARBOROUGH,Admin
A5001509,PICKERING DO,2816.100.,YO18 7AG,THORNTON ROAD IND ESTATE,,PICKERING,Admin
A5001515,YORK CENTRAL DO,2817.100.,YO26 4ZZ,4 LEEMAN ROAD,,YORK,Admin
A5001512,SELBY DO,2819.100.,YO8 4EH,MICKLEGATE,,SELBY,Admin
A5001435,HULL RTW,2822.100.,HU7 0YF,MALMO ROAD,,HULL,Admin
A5001505,BIRCH PARK DO,2823.100.,YO31 9XX,HUNTINGTON ROAD,,YORK,Admin
A5001513,THIRSK DO,2824.100.,YO7 3XX,THIRSK INDUSTRIAL PARK,,THIRSK,Admin
A5001507,DRIFFIELD DO,2825.100.,YO25 9GG,WADSWORTH ROAD,,DRIFFIELD,Admin
A5001436,SAXON WAY DO,2826.100.,HU13 9TA,SAXON WAY,,,Admin
A5001432,BEVERLEY DO,2827.100.,HU17 0WA,ANNIE REED ROAD,,BEVERLEY,Admin
A5001463,GRIMSBY DO,2834.100.,DN31 3AR,FOTHERBY STREET,,GRIMSBY,Admin
A500158,GOSFORTH DO,2837.100.,NE3 3UA,JUBILEE ROAD,,NEWCASTLE UPON TYNE,Admin
A5001438,CALDERWAY DO,2838.100.,WF13 1FF,CANNON WAY,,,Admin
A5001410,FRASERBURGH DO,2848.100.,AB43 9AA,"24 COMMERCE STREET,",,FRASERBURGH,Admin
A5001411,FRASERBURGH RTW,2848.101.,AB43 9AQ,"24 COMMERCE STREET,",,FRASERBURGH,Admin
A5001407,BANFF DO,2849.100.,AB45 1AA,10 CARMELITE STREET,,BANFF,Admin
A5001408,BUCKIE DO,2850.100.,AB56 1BA,46 EAST CHURCH STREET,,BUCKIE,Admin
A5001412,HUNTLY DO,2851.100.,AB54 8AA,"15 THE SQUARE,",,HUNTLY,Admin
A5001111,TURRIFF DO,2852.100.,AB53 4EA,24 HIGH STREET,,TURRIFF,Admin
A5001414,KITTYBREWSTER DO,2853.100.,AB25 3BB,"ASHGROVE ROAD,",,ABERDEEN,Admin
A5001103,ELGIN DO,2854.100.,IV30 1AA,250 HIGH STREET,,ELGIN,Admin
A5001104,ELGIN RTW,2854.101.,IV30 1BA,244 HIGH STREET,,ELGIN,Admin
A5001181,LERWICK DO,2858.100.,ZE1 0AA,46-50 COMMERCIAL STREET,,SHETLAND,Admin
A5001117,PETERHEAD DO,2861.100.,AB42 1AA,KIRK STREET,,PETERHEAD,Admin
A5001105,FORRES DO,2862.100.,IV36 1ZZ,BOGTON PLACE,,FORRES,Admin
A5001409,ELLON DO,2863.100.,AB41 9JJ,"HOSPITAL ROAD,",,ELLON,Admin
A5001413,KEITH DO,2865.100.,AB55 5AA,"132 MID STREET,",,KEITH,Admin
A5001416,MASTRICK DO,2866.100.,AB16 6WW,"WHITEMYRES AVENUE,",,ABERDEEN,Admin
A5001112,WESTHILL DO,2869.100.,AB32 6AB,ENTERPRISE DRIVE,,WESTHILL,Admin
A5001406,ABERDEEN MC,2870.100.,AB12 3TT,WELLINGTON CIRCLE,,ABERDEEN,Admin
A5001176,DUMFRIES DO,2875.100.,DG1 1AA,7 GREAT KING STREET,,DUMFRIES,Admin
A5001175,CASTLE DOUGLAS DO,2879.100.,DG7 1LU,100 KING STREET,,CASTLE DOUGLAS,Admin
A5001179,STRANRAER DO,2880.100.,DG9 7SA,26-32 HANOVER STREET,,STRANRAER,Admin
A5001180,STRANRAER RTW,2881.100.,DG9 7EA,ROSE STREET,,STRANRAER,Admin
A5001178,NEWTON STEWART DO,2882.100.,DG8 6ND,STATION INDUSTRIAL ESTATE,,NEWTON STEWART,Admin
A5001177,LANGHOLM GAR,2883.101.,DG13 0JH,HIGH STREET,,LANGHOLM,Admin
A5001174,ANNAN DO,2884.100.,DG12 6TS,STATION ROAD,,ANNAN,Admin
A5001192,EDINBURGH NORTH WEST DO,2888.100.,EH4 1AF,,41 COMELY BANK,EDINBURGH,Admin
A5001630,MANSFIELD DO,289.100.,NG19 9BG,,,,Admin
A5001193,EDINBURGH SOUTH WEST DO,2890.100.,EH10 4AB,4 FALCON ROAD WEST,,EDINBURGH,Admin
A5001189,DALKEITH DO,2891.100.,EH22 1AA,10A ESKBANK ROAD,,DALKEITH,Admin
A5001158,PENICUIK DO,2893.100.,EH26 8AA,46 JOHN STREET,,PENICUIK,Admin
A5001156,HADDINGTON GAR,2898.101.,EH41 3BH,2D HOSPITAL ROAD,,HADDINGTON,Admin
A5001159,TRANENT DO,2900.100.,EH33 1LH,2 CIVIC SQUARE,,TRANENT,Admin
A5001140,ST ANDREWS DO,2912.100.,KY16 8RP,54 LARGO ROAD,,ST. ANDREWS,Admin
A5001157,LIVINGSTON DO,2917.100.,EH54 6TT,FAIRBAIRN ROAD,,LIVINGSTON,Admin
A5001173,SELKIRK DO,2918.100.,TD7 4BP,30 MARKET PLACE,,SELKIRK,Admin
A5001169,GALASHIELS RTW,2920.100.,TD1 1BZ,11-13-15 PARK STREET,,GALASHIELS,Admin
A5001167,DUNS DO,2921.100.,TD11 3AB,37 SOUTH STREET,,DUNS,Admin
A5001170,HAWICK DO,2925.100.,TD9 0BB,ST GEORGES LANE,,HAWICK,Admin
A5001137,GLENROTHES DO,2926.100.,KY7 4NY,UNIT P BAIRD ROAD,,GLENROTHES,Admin
A5001138,GLENROTHES RTW,2926.101.,KY7 4NY,UNIT P BAIRD ROAD,,GLENROTHES,Admin
A5001166,COLDSTREAM DO,2928.100.,TD12 4EQ,GUARDS ROAD,,COLDSTREAM,Admin
A5001139,KIRKCALDY DO,2931.100.,KY2 5ZX,FORTH AVENUE INDUSTRIAL ESTATE,,KIRKCALDY,Admin
A500105,EDINBURGH MC,2938.100.,EH11 4YY,11 CULTINS ROAD,,EDINBURGH,Admin
A5001188,EDINBURGH RTW,2938.101.,EH11 4YY,,11 CULTINS ROAD,EDINBURGH,Admin
A5001168,GALASHIELS DO,2939.100.,TD1 1AA,1 CHANNEL STREET,,GALASHIELS,Admin
A5001171,JEDBURGH DO,2940.100.,TD8 6DG,37 HIGH STREET,,JEDBURGH,Admin
A5001172,MELROSE DO,2941.100.,TD6 9LE,10 BUCCLEUCH STREET,,MELROSE,Admin
A5001153,GLASGOW G41-G42-G45 DO,2947.100.,G42 7JB,86 VICTORIA ROAD,,GLASGOW,Admin
A5001101,GLASGOW G13 & G14 DO,2949.100.,G13 3RJ,28 LINCOLN AVENUE,,GLASGOW,Admin
A5001478,LEEDS LD,295.100.,LS10 1RZ,"UNITS 1-4 SKELTON GRANGE ROAD,",,LEEDS,Admin
A5001479,LEEDS RTW,295.102.,LS10 1RZ,"SKELTON GRANGE ROAD,",,LEEDS,Admin
A5001477,LEEDS BRANCH DIRECT HUB,295.101.,LS10 1RZ,UNITS 1-4 SKELTON GRANGE ROAD,,LEEDS,Admin
A5001134,ROTHESAY DO,2968.100.,PA20 9DQ,10 BISHOP STREET,,ISLE OF BUTE,Admin
A5001129,DUNOON DO,2969.100.,PA23 7NS,93 JOHN STREET,,DUNOON,Admin
A5001133,PAISLEY DO,2971.100.,PA3 1TN,62 UNDERWOOD ROAD,,PAISLEY,Admin
A5001143,DALRY DO,2973.100.,KA24 4AB,3 TOWNEND STREET,,DALRY,Admin
A5001145,IRVINE DO,2979.100.,KA12 8AE,165 HIGH STREET,,IRVINE,Admin
A5001147,SALTCOATS DO,2982.100.,KA21 5EE,CHAPELWELL STREET,,SALTCOATS,Admin
A5001142,AYR DO,2983.100.,KA7 1AA,1 BOSWELL PARK,,AYR,Admin
A5001148,TROON DO,2985.100.,KA10 6AX,12 CHURCH STREET,,TROON,Admin
A5001163,MOTHERWELL DO,2990.100.,ML1 1AA,214-218 MUIR STREET,,MOTHERWELL,Admin
A5001161,COATBRIDGE DO,2995.100.,ML5 3AQ,1 COATBANK WAY,,COATBRIDGE,Admin
A5001131,OBAN DO,2996.100.,PA34 4AA,ALBANY STREET,,OBAN,Admin
A5001132,OBAN RTW,2997.100.,PA34 4LH,SHORE STREET,,OBAN,Admin
A5001149,CUMBERNAULD DO,3003.100.,G67 1AZ,5 SOUTH MUIRHEAD ROAD,,GLASGOW,Admin
A5001144,GIRVAN DO,3005.100.,KA26 9DF,AILSA STREET EAST,,GIRVAN,Admin
A500116,GLASGOW MC,3007.100.,G21 1AA,20 TURNER ROAD,,GLASGOW,Admin
A5001155,GLASGOW RTW,3007.101.,G21 1AZ,20 TURNER ROAD,,GLASGOW,Admin
A5001152,GLASGOW G20 AND G23 DO,3009.100.,G20 9AN,22 LOCHBURN ROAD,,GLASGOW,Admin
A5001160,BELLSHILL DO,3011.100.,ML4 1BB,BOWLING GREEN STREET,,BELLSHILL,Admin
A5001150,GLASGOW G1-5 DO,3012.100.,G4 0AA,BAIRD STREET,,GLASGOW,Admin
A5001130,INVERCLYDE DO,3016.100.,PA15 4RD,10 KNOWE ROAD,,GREENOCK,Admin
A5001162,HAMILTON DO,3018.100.,ML3 6AA,20-24 BRANDON STREET,,HAMILTON,Admin
A5001146,KILMARNOCK DO,303.100.,KA1 3AA,QUEENS DRIVE,,KILMARNOCK,Admin
A5001109,LAIRG RTW,3031.100.,IV27 4DF,DAVIDSON TERRACE,,LAIRG,Admin
A5001183,THURSO DO,3033.100.,KW14 7AL,SINCLAIR STREET,,THURSO,Admin
A5001124,FORT WILLIAM DO,3035.100.,PH33 6AA,5 HIGH STREET,,FORT WILLIAM,Admin
A5001185,STORNOWAY RTW,3039.100.,HS1 2RB,20-22 INACLETE ROAD,,STORNOWAY,Admin
A5001184,SOUTH UIST RTW,3041.100.,HS8 5TH,LOCHBOISDALE,,ISLE OF SOUTH UIST,Admin
A5001110,PORTREE DO/RTW,3042.100.,IV51 9AA,DUNVEGAN ROAD,,PORTREE,Admin
A5001182,STROMNESS DO,3049.100.,KW16 3BP,BACK ROAD,,STROMNESS,Admin
A5001648,ARBROATH DO,3052.100.,DD11 1AA,16 HILL STREET,,ARBROATH,Admin
A5001135,DUNDEE CENTRAL DO,3055.100.,DD1 5ZZ,7 EDWARD STREET,,DUNDEE,Admin
A5001127,PERTH RTW,3057.102.,PH1 1AA,53 FEUS ROAD,,PERTH,Admin
A5001125,PERTH ST,3057.103.,PH1 1AA,53 FEUS ROAD,,PERTH,Admin
A5001128,PITLOCHRY DO,3061.100.,PH16 5AA,PERTH ROAD,,PITLOCHRY,Admin
A5001136,DUNDEE WEST DO,3066.100.,DD2 3UX,43 BAIRD AVENUE,,DUNDEE,Admin
A5001141,FALKIRK DO,3068.100.,FK1 1AA,1 GARRISON PLACE,,FALKIRK,Admin
A5001164,WISHAW DO,3107.100.,ML2 0YY,CANYON ROAD,,WISHAW,Admin
A5001186,SCOTTISH PH/RTW/HUB,3110.100.,ML2 0XX,CANYON ROAD,,WISHAW,Admin
A500174,AVONMOUTH DO,313.100.,BS11 9EY,ST. BRENDANS WAY,,BRISTOL,Admin
A500176,KEYNSHAM DO,315.100.,BS31 2GY,ASHTON WAY,,BRISTOL,Admin
A500183,KINGSWOOD DO,316.100.,BS15 8PN,HANHAM ROAD,,BRISTOL,Admin
A500178,PORTISHEAD DO,318.100.,BS20 6AL,80 HIGH STREET,,BRISTOL,Admin
A500181,WESTON SUPER MARE DO,367.100.,BS23 3PR,WARNE ROAD,,BRISTOL,Admin
A500180,WESTBURY ON TRYM DO,319.100.,BS9 3GG,WESTBURY COURT ROAD,,BRISTOL,Admin
A5001258,FLINT ABER PARK PAR,3202.1.,CH6 5EX,ABER PARK INDUSTRIAL ESTATE,,FLINT,Admin
A5001517,YORK LD,323.100.,YO26 6QS,MILLFIELD LANE,,YORK,Admin
A5001461,DONCASTER RAIL TERMINAL HUB,3236.100.,DN4 8RR,MALLARD WAY,,DONCASTER,Admin
A500109,JUBILEE MC,3260.100.,TW4 5XX,GODFREY WAY,,HOUNSLOW,Admin
A5001622,STOKE OFF         ,3275.100.,ST1 5RY,LAKESIDE,FESTIVAL WAY,STOKE ON TRENT,Admin
A500175,CLIFTON BS DO,328.100.,BS8 1BJ,2 CLIFTON ROAD,,BRISTOL,Admin
A500182,YATE DO,329.100.,BS37 4DG,1 SOUTH PARADE,,BRISTOL,Admin
A500177,NAILSEA DO,331.100.,BS48 1RA,CROWN GLASS PLACE,,BRISTOL,Admin
A500169,BRISTOL HUB,3319.100.,BS37 5YT,1 GOODRICH CLOSE,,BRISTOL,Admin
A5001562,NATIONAL PH,3343.100.,NN6 7DD,DANES WAY,DAVENTRY RAIL FREIGHT TML,NORTHAMPTON,Admin
A5001576,NORTHAMPTON DO,3360.100.,NN5 5JY,"45-47 ST JAMES MILL ROAD,",,NORTHAMPTON,Admin
A500179,THORNBURY DO,337.100.,BS35 3UY,COOPER ROAD,,BRISTOL,Admin
A5001187,EDINBURGH AIR OVERFLOW HUB,3388.100.,EH12 0AL,TRANSIT SHED A,,EDINBURGH,Admin
A500172,BRISTOL SOUTH EAST DO,340.100.,BS4 3DZ,MEAD STREET,,BRISTOL,Admin
A5001362,MINEHEAD GAR,341.101.,TA24 5AA,POST OFFICE LANE,,MINEHEAD,Admin
A5001626,BINGHAM DO,3410.100.,NG13 8AS,,,,Admin
A5001298,NEWTON ABBOT DO,3442.100.,TQ12 4BT,UNIT 2 FORDE COURT,,NEWTON ABBOT,Admin
A5001594,CROYDON RTW,3447.100.,CR0 4XY,UNIT E PIONEERS INDUSTRIAL PARK,,CROYDON,Admin
A5001359,BRIDGEWATER DO,345.100.,TA6 3XX,FRIARN ST,,BRIDGWATER,Admin
A5001341,EXETER PAR,3456.1.,EX1 2AA,4 BELGRAVE ROAD,,EXETER,Admin
A5001337,EXETER DO,3456.100.,EX1 2AA,4 BELGRAVE ROAD,,EXETER,Admin
A5001360,BURNHAM ON SEA DO,346.100.,TA8 1ER,DUNSTAN ROAD,,BURNHAM ON SEA,Admin
A500157,GATESHEAD HUB,3465.100.,NE10 8YF,UNIT 15A FOLLINGSBY AVENUE,,GATESHEAD,Admin
A5001429,NEWPORT PAGNELL DO,3500.100.,MK16 9BF,"UNIT 12 PLOVER CLOSE,",,NEWPORT PAGNELL,Admin
A5001361,CREWKERNE DO,351.100.,TA18 7HE,BLACKNELL LANE,,CREWKERNE,Admin
A5001220,AMMANFORD DO,3513.100.,SA18 2LS,30-32 KINGS ROAD EAST,FOUNDRY ROAD,AMMANFORD,Admin
A5001575,BURY ST EDMUNDS DO,3515.100.,IP32 7YY,SKYLINER WAY,,BURY ST EDMUNDS,Admin
A5001601,EAST MIDLANDS AIR HUB,3520.100.,DE74 2SA,NOTTINGHAM EAST MIDLANDS AIRPORT,,DERBY,Admin
A5001364,TAUNTON DO,353.100.,TA1 1AA,CHIP LANE,,TAUNTON,Admin
A5001523,NORTHAMPTON RTW,3564.100.,NN3 9HZ,UNIT 4 FORTUNE CLOSE,,NORTHAMPTON,Admin
A5001195,GLASGOW LD,3583.100.,G32 8NB,,100 CAMBUSLANG ROAD,GLASGOW,Admin
A5001363,SOMERTON DO,359.100.,TA11 6SB,SOMERTON BUSINESS PARK,,SOMERTON,Admin
A5001325,ABERYSTWYTH DO,3597.100.,SY23 3GX,GLAN YR AFON IND ESTATE,,ABERYSTWYTH,Admin
A5001190,EDINBURGH EAST DO,3622.100.,EH7 6XD,,7-11 EAST TELFERTON IND ESTATE,EDINBURGH,Admin
A5001205,LONDON EAST RTW,3649.102.,RM20 3ED,OLIVER ROAD,,GRAYS,Admin
A500171,BRISTOL NORTH DO,366.100.,BS6 5DD,STATION ROAD,,BRISTOL,Admin
A500129,SOUTH MIDLANDS MC,3661.100.,NN4 9DR,SWAN VALLEY WAY,SWAN VALLEY,NORTHAMPTON,Admin
A5001415,LAURENCEKIRK DO,3662.100.,AB30 1AW,"UNIT 1 LAURENCEKIRK BUSINESS PARK,",,LAURENCEKIRK,Admin
A5001229,CHRISTCHURCH DO,3666.100.,BH23 2FB,UNITS 19-22 AVON TRADING PARK,,CHRISTCHURCH,Admin
A500140,BRISTOL MC,368.100.,BS34 7ST,GLOUCESTER ROAD NORTH,,BRISTOL,Admin
A500173,BRISTOL RTW,368.101.,BS34 7ST,GLOUCESTER ROAD NORTH,,BRISTOL,Admin
A500168,BRISTOL FISHPONDS DO,369.100.,BS16 3ZZ,UNIT 3 NEW STATION WAY,,BRISTOL,Admin
A5001530,COVENTRY CITY NORTH DO,3693.100.,CV6 5AB,1 THE STAMPINGS,,COVENTRY,Admin
A5001525,COVENTRY CITY NORTH RTW,3693.101.,CV6 5AB,1 THE STAMPINGS,,COVENTRY,Admin
A500120,PETERBOROUGH HUB,3697.100.,PE2 6YX,UNIT 5 HADDENBROOK BUS CTR,,PETERBOROUGH,Admin
A500167,BRISTOL EAST CENTRAL ST,371.100.,BS2 8AA,UNIT 13 AND 16 CITY BUSINESS PARK,,BRISTOL,Admin
A5001345,EXETER VOC,3712.1.,EX5 1EW,COMPOUND 44 GREENDALE BUS PK,,EXETER,Admin
A5001340,EXETER OFF,3712.100.,EX5 1EW,COMPOUND 44 GREENDALE BUS PK,,EXETER,Admin
A5001531,COVENTRY SOUTH DO,3718.100.,CV3 4RP,AIRPORT RETAIL PARK,,COVENTRY,Admin
A500166,BRISTOL CITY DO,372.100.,BS1 1AD,UNIT 19 CITY BUS PARK,EASTON ROAD,BRISTOL,Admin
A500141,SOUTH WEST PH,375.100.,BS35 4GG,WESTERN APPROACH DISTRIBUTION PARK,,BRISTOL,Admin
A5001199,ROMFORD DO,3762.100.,RM8 1RX,UNIT 3-9 FRESHWATER ROAD,,DAGENHAM,Admin
A500190,BARRY DO,378.100.,CF63 4ZZ,3-5 HOLTON ROAD,,BARRY,Admin
A5001613,STOKE LD,3787.100.,ST5 9QH,UNIT G DALEWOOD ROAD,,NEWCASTLE UNDER LYME,Admin
A500196,PENARTH DO,380.100.,CF64 1XL,39 ALBERT ROAD,,PENARTH,Admin
A5001154,GLASGOW SOUTH EAST DO,3802.100.,G32 8FA,14 FULLARTON DRIVE,,GLASGOW,Admin
A500187,CARDIFF WEST DO,381.100.,CF5 1AX,635 COWBRIDGE ROAD EAST,,CARDIFF,Admin
A5001207,GRAYS DO,3813.100.,RM17 5QB,HOGG LANE,,GRAYS,Admin
A5001380,NORTH WEST PROCESSING CTR,3838.100.,PR7 7DW,REVOLUTION PARK,,CHORLEY,Admin
A500184,CARDIFF MC,384.100.,CF11 8TA,220-228 PENARTH ROAD,,CARDIFF,Admin
A500188,CARDIFF RTW,384.101.,CF11 8TA,220-228 PENARTH ROAD,,CARDIFF,Admin
A500197,PONTYCLUN DO,385.100.,CF72 8UU,COWBRIDGE ROAD,,PONTYCLUN,Admin
A500198,PONTYCLUN GAR,385.101.,CF72 8UU,COWBRIDGE ROAD,,PONTYCLUN,Admin
A5001382,PRESTON LD,3866.100.,PR5 8AN,UNIT 261 CARNFIELD PLACE,,PRESTON,Admin
A5001624,CROYDON DO,3880.100.,CR0 3RL,36-40 FACTORY LANE,,CROYDON,Admin
A5001538,NEWCASTLE LD,3881.100.,DH2 1AE,UNIT 3 DRUM IND ESTATE,DURHAM ROAD,CHESTER LE STREET,Admin
A5001499,ROTHERHAM LD,3882.100.,S60 1DX,SHEFFIELD ROAD,,ROTHERHAM,Admin
A5001527,COVENTRY LD,3885.100.,CV6 4QE,UNIT DC7 WEST AVENUE,3 LOGIS PARK,COVENTRY,Admin
A500191,BRIDGEND CF DO,389.100.,CF31 1ZZ,TREMAINS ROAD,,BRIDGEND,Admin
A5001397,CORNWALL LD,3896.100.,PL31 2RQ,UNIT 11 CALLYWITH GATE IND EST,,BODMIN,Admin
A5001417,MILTON KEYNES LD,3905.100.,MK15 8HG,7 MICHIGAN DRIVE,,MILTON KEYNES,Admin
A5001338,EXETER LD,392.100.,EX2 8RL,13 TRUSHAM ROAD,,EXETER,Admin
A5001495,FUTURE WALK OFF,4.100.,S49 1PF,"1 FUTURE WALK, WEST BARS",,CHESTERFIELD,Admin
A5001496,FUTURE WALK RTW,4.101.,S40 1AA,WEST BARS,,CHESTERFIELD,Admin
A5001492,FUTURE WALK DO,4.102.,S40 1AA,WEST BARS,,CHESTERFIELD,Admin
A500153,LLANISHEN ST,4046.100.,CF14 5DX,TY GLAS AVENUE,,LLANISHEN,Admin
A5001392,PLYMOUTH LD,405.100.,PL6 7BQ,TAMERTON ROAD,,PLYMOUTH,Admin
A5001289,ABERGAVENNY DO,406.100.,NP7 5AZ,1 ST JOHNS SQUARE,,ABERGAVENNY,Admin
A5001291,BLACKWOOD DO,407.100.,NP12 1XA,160-164 HIGH STREET,,BLACKWOOD,Admin
A5001265,BANGOR RTW,4082.100.,LL57 4YH,LLANDYGAI INDUSTRIAL ESTATE,,BANGOR,Admin
A5001296,CHEPSTOW DO,409.100.,NP16 5XA,STATION ROAD,,CHEPSTOW,Admin
A5001107,INVERNESS MC,4092.100.,IV1 1SG,50 SEAFIELD ROAD,,INVERNESS,Admin
A5001297,CWMBRAN DO,410.100.,NP44 1BZ,GENERAL REES SQUARE,,CWMBRAN,Admin
A5001295,CALDICOT DO,414.100.,NP26 4YY,NEWPORT ROAD,,CALDICOT,Admin
A5001292,EBBW VALE DO,415.100.,NP23 6AD,HOLLAND STREET,,EBBW VALE,Admin
A5001294,TREDEGAR DO,416.100.,NP22 3XA,THE PROMENADE,,TREDEGAR,Admin
A5001347,LONDON AIR MAIL UNIT HUB,4196.100.,TW6 3PR,585 SHORT ROAD,,HOUNSLOW,Admin
A5001100,SWANSEA LD,4219.100.,SA7 0AQ,OLYMPUS A,MILL STREAM WAY,SWANSEA,Admin
A5001520,CRICK RTW,4223.100.,NN6 7SL,"CRICK MOTORWAY ESTATE, ELDON WAY",,CRICK,Admin
A5001290,ABERTILLERY DO,426.100.,NP13 1XE,UNIT 5 CWMTILLERY INDUSTRIAL ESTATE,,ABERTILLERY,Admin
A5001293,PONTYPOOL DO,427.100.,NP4 6AB,PONTNEWYNYDD INDUSTRIAL ESTATE,,PONTYPOOL,Admin
A5001288,ABERCARN DO,429.100.,NP11 4AA,PRINCE OF WALES INDUSTRIAL ESTATE,,NEWPORT,Admin
A500102,MIDLANDS HUB,4290.100.,NN6 7HQ,DRIFT DRIVE,,CRICK,Admin
A500185,CARDIFF NORTH DO,431.100.,CF14 5XW,UNIT 11-13 CHEVIOT CLOSE,,CARDIFF,Admin
A5001547,ATTLEBOROUGH SUDO,4315.100.,NR17 2QZ,38 MAURICE GAYMER ROAD,,ATTLEBOROUGH,Admin
A5001242,BRIDGWATER RTW,4318.100.,TA6 6LQ,SHOWGROUND ROAD,,BRIDGWATER,Admin
A500165,SOUTH SHIELDS DO,4326.100.,NE33 5BY,WEST WALPOLE STREET,,SOUTH SHIELDS,Admin
A5001555,LONG STRATTON SUDO,4329.100.,NR15 2PD,20 WELLESLEY ROAD,,NORWICH,Admin
A5001327,BRECON DO,433.100.,LD3 8NU,UNIT 8 FFRWDGRECH INDUSTRIAL ESTATE,,BRECON,Admin
A5001217,NARBERTH DO,4337.100.,SA67 7ET,HILL STREET,UNIT 18 RUSHACRE ENTERPRISE PARK,NARBERTH,Admin
A500192,CAERPHILLY DO,435.100.,CF83 2XX,16-17 TRECENYDD BUSINESS PARK,,CAERPHILLY,Admin
A500194,HENGOED DO,437.100.,CF82 7YY,2 WILLOW WAY,,HENGOED,Admin
A500193,FERNDALE DO,438.100.,CF43 4HN,UNIT 14 OAKLANDS BUSINESS PARK,,FERNDALE,Admin
A5001285,NEWPORT LD,439.100.,NP20 2NN,UNITS 21&22 MAESGLAS INDUSTRIAL EST,,NEWPORT,Admin
A500128,NORTH WEST SH,4394.100.,WA5 3UY,UNIT 1 MOUNTPARK,,WARRINGTON,Admin
A5001284,NEWPORT EAST DO,440.100.,NP19 4AA,12-13 ESTUARY ROAD,,NEWPORT,Admin
A5001643,STOREFEEDER NOTT HQ OFF,4402.100.,NG8 6AT,2 COLLIERS WAY,DAVY HOUSE,NOTTINGHAM,Admin
A5001516,YORK RTW,4404.100.,YO30 4UU,"UNIT 9 SEAFIRE CLOSE, CLIFTON MOOR IND EST",,YORK,Admin
A500195,MID RHONDDA GANOL DO,441.100.,CF40 2XY,CAMBRIAN INDUSTRIAL PARK,,TONYPANDY,Admin
A5001405,EDINBURGH VOC CHR,4456.1.,EH28 8NB,"ROYAL HIGHLAND CENTRE CAR PARK,",,"INGLISTON, EDINBURGH",Admin
A5001108,INVERNESS RTW,4492.100.,IV1 1ST,UNIT 1 LOTLAND STREET,,INVERNESS,Admin
A5001344,EXETER TRAILER PAR,4501.1.,EX5 1EW,COMPOUND 61,GREENDALE BUSINESS PARK,EXETER,Admin
A5001277,GLASGOW OUTHOUSE LD,4517.100.,G68 0LL,NAPIER PLACE,WARDPARK IND ESTATE,CUMBERNAULD,Admin
A5001126,PERTH LD,455.100.,PH1 3UG,UNITS 1 AND A1 INVERALMOND GROVE,,PERTH,Admin
A5001106,INVERNESS LD,462.100.,IV1 1AD,7 LOTLAND STREET,,INVERNESS,Admin
A5001532,KENILWORTH DO,476.100.,CV8 1AA,BARROW ROAD,,KENILWORTH,Admin
A5001283,NUNEATON DO,479.100.,CV11 4AA,"3 CHURCH STREET,",,NUNEATON,Admin
A5001534,RUGBY DO,482.100.,CV21 1AA,MILL ROAD,,RUGBY,Admin
A5001535,RUGBY RTW,482.101.,CV21 1AA,MILL ROAD,,RUGBY,Admin
A5001533,LEAMINGTON SPA DO,484.100.,CV31 1AA,1 PRIORY TERRACE,,LEAMINGTON SPA,Admin
A5001536,STRATFORD UPON AVON DO,487.100.,CV37 0XX,MAYBROOK ROAD,,STRATFORD UPON AVON,Admin
A5001537,WARWICK DO,488.100.,CV34 5WW,UNITS 1-4 BROXELL CLOSE,,WARWICK,Admin
A5001524,ATHERSTONE DO,490.100.,CV9 1AA,7 COLESHILL STREET,,ATHERSTONE,Admin
A5001600,DERBY DO/RET/OFF,536.100.,DE1 1AA,MIDLAND ROAD,,DERBY,Admin
A5001623,DERBY RTW,536.101.,DE1 1AA,MIDLAND ROAD,,DERBY,Admin
A5001596,ASHBOURNE DO,537.100.,DE6 1YA,BLENHEIM ROAD,,ASHBOURNE,Admin
A5001598,BELPER DO,539.100.,DE56 1UU,GOODS ROAD,,BELPER,Admin
A5001604,RIPLEY DE DO,542.100.,DE5 3BP,MARKET PLACE,,RIPLEY,Admin
A5001605,SWADLINCOTE DO,543.100.,DE11 0AA,CIVIC WAY,,SWADLINCOTE,Admin
A5001603,MATLOCK DO,545.100.,DE4 3AA,14 BANK ROAD,,MATLOCK,Admin
A5001597,BAKEWELL DO,547.100.,DE45 1FY,BRIDGE STREET,,BAKEWELL,Admin
A5001595,ALFRETON DO,551.100.,DE55 4QS,WEST WAY,,ALFRETON,Admin
A5001602,ILKESTON DO,554.100.,DE7 8XD,MANNERS AVENUE,,ILKESTON,Admin
A5001599,BURTON ON TRENT DO,557.100.,DE14 1BB,15-16 FALCON CLOSE,,BURTON ON TRENT,Admin
A500103,BOLTON NORTH DO,57.100.,BL1 8XX,UNIT 7 THE COURTYARD,,BOLTON,Admin
A5001422,BRINKLOW DO,58.100.,MK10 0BS,BRUDENELL DRIVE,,MILTON KEYNES,Admin
A5001421,BLETCHLEY DO,59.100.,MK1 1AS,"DANE ROAD,",,MILTON KEYNES,Admin
A5001336,AXMINSTER DO,595.100.,EX13 5AA,SOUTH STREET,,AXMINSTER,Admin
A5001346,CREDITON DO,597.100.,EX17 1HX,HAWKINS WAY,,CREDITON,Admin
A5001355,HONITON DO,599.100.,EX14 1PA,CHAPEL STREET,,HONITON,Admin
A5001191,EDINBURGH LD,6.100.,EH11 4XX,,100 BANKHEAD CROSSWAY NORTH,EDINBURGH,Admin
A5001334,TIVERTON DO,600.100.,EX16 6BH,25 BAMPTON STREET,,TIVERTON,Admin
A5001335,SIDMOUTH DO,605.100.,EX10 8TP,VICARAGE ROAD,,SIDMOUTH,Admin
A5001354,HOLSWORTHY DO,611.100.,EX22 6BK,CROFT ROAD,,HOLSWORTHY,Admin
A5001351,BEAWORTHY STATION ROAD GAR,612.100.,EX21 5XW,STATION ROAD,,BEAWORTHY,Admin
A5001352,BIDEFORD DO,613.100.,EX39 2EX,THE QUAY,,BIDEFORD,Admin
A5001356,ILFRACOMBE DO,617.100.,EX34 9DB,37-38 HIGH STREET,,ILFRACOMBE,Admin
A5001350,BARNSTAPLE DO,620.100.,EX32 8XX,MALLETS LANE,,BARNSTAPLE,Admin
A5001349,BARNSTAPLE RTW,620.101.,EX32 8XX,MALLETS LANE,,BARNSTAPLE,Admin
A5001323,BRIXHAM DO,625.100.,TQ5 8TQ,MARKET STREET,,BRIXHAM,Admin
A5001324,TEIGNMOUTH DO,627.100.,TQ14 8AA,DEN ROAD,,TEIGNMOUTH,Admin
A5001322,DARTMOUTH DO,628.100.,TQ6 9BE,20 VICTORIA ROAD,,DARTMOUTH,Admin
A5001333,TORQUAY DO,630.100.,TQ2 7TA,BROOMHILL WAY,,TORQUAY,Admin
A5001339,EXETER MC,635.100.,EX2 7XX,OSPREY ROAD,,EXETER,Admin
A5001343,EXETER ST,635.101.,EX2 7XX,OSPREY ROAD,,EXETER,Admin
A5001299,TOTNES DO,638.100.,TQ9 5FN,"BABBAGE ROAD,",,TOTNES,Admin
A5001236,POOLE LD/RTW,722.100.,BH17 7AG,UNIT 1-4 UPTON ROAD,,POOLE,Admin
A500186,CARDIFF NORTH EAST DO,724.100.,CF3 2ZZ,UNIT 5 SPRINGMEADOW BUSINESS PARK,,CARDIFF,Admin
A5001577,CLEVELAND LD,731.100.,TS2 1RA,"UNIT 4-6 RALEIGH COURT, MIDDLESBROUGH",,MIDDLESBROUGH,Admin
A5001256,DEESIDE LD,734.100.,CH5 2QX,UNITS 5-7 ST IVES PARK,,DEESIDE,Admin
A5001301,CARLISLE LD,760.100.,CA3 0PP,BANK END ROAD,,CARLISLE,Admin
A5001642,NOTTINGHAM LD,77.100.,NG4 2SQ,UNIT 2 DRAKE ROAD,,NOTTINGHAM,Admin
A5001619,LINCOLN LD,775.100.,LN6 3LQ,WHISBY WAY,,LINCOLN,Admin
A5001252,SHREWSBURY LD,776.100.,SY4 4UP,UNITS 50-51 ATCHAM BUSINESS PARK,,SHREWSBURY,Admin
A500110,GREENFORD MC,784.100.,UB6 0GG,GREEN PARK WAY,,GREENFORD,Admin
A500149,LEICESTER LD,798.100.,LE4 5HQ,1 ELLAND ROAD,,LEICESTER,Admin
A5001206,WEST THURROCK HUB,80.100.,RM20 3FJ,UNIT 6B TRADE LINK WESTON AVE,,GRAYS,Admin
A500170,BRISTOL LD,839.100.,BS34 5TB,UNIT 17 CONCORDE ROAD,,BRISTOL,Admin
A5001403,TAVISTOCK DO,867.100.,PL19 9RL,11-14 CRELAKE IND ESTATE,,TAVISTOCK,Admin
A5001404,WEST PARK DO,871.100.,PL5 2LG,COOMBE PARK LANE,,PLYMOUTH,Admin
A5001390,LOOE DO,874.100.,,,,,Admin
A5001402,SALTASH DO,879.100.,PL12 6AA,WESLEY ROAD,,SALTASH,Admin
A5001398,IVYBRIDGE DO,885.100.,PL21 9AA,UNIT 17-18 WESTOVER IND EST,,IVYBRIDGE,Admin
A5001401,PLYMPTON DO,889.100.,PL7 2DR,AYLWIN CLOSE,,PLYMOUTH,Admin
A5001353,BUDE DO,891.100.,EX23 8LU,BELLE VUE,,BUDE,Admin
A5001400,LISKEARD DO,897.100.,PL14 6AA,THE PARADE,,LISKEARD,Admin
A5001368,NEWQUAY DO,902.100.,TR7 1BU,EAST STREET,,NEWQUAY,Admin
A5001387,BODMIN DO,903.100.,PL31 1AA,ST NICHOLAS STREET,,BODMIN,Admin
A5001389,WADEBRIDGE DO,909.100.,PL27 7AA,,,,Admin
A5001370,REDRUTH DO,914.100.,TR15 2AA,61 FORE STREET,,REDRUTH,Admin
A5001371,REDRUTH RTW,914.101.,TR15 2AA,61 FORE STREET,,REDRUTH,Admin
A5001369,PENZANCE DO,921.100.,TR18 2NY,CLARENCE STREET,,PENZANCE,Admin
A5001367,HAYLE DO,924.100.,TR27 4AA,FOUNDRY SQUARE,,HAYLE,Admin
A5001372,TRURO MC,930.100.,TR1 1AA,NEWHAM,,TRURO,Admin
A5001375,ST AUSTELL DO,931.100.,,,,,Admin
A5001399,LAUNCESTON DO,933.100.,PL15 7PL,LOWLEY ROAD,,LAUNCESTON,Admin
A5001394,PLYMOUTH NORTH DO,936.100.,PL9 7EB,BREAKWATER ROAD,,PLYMOUTH,Admin
A5001396,CALLINGTON DO,937.100.,PL17 7SP,1-3 MOSS SIDE INDUSTRIAL ESTATE,,CALLINGTON,Admin
A5001388,BODMIN RTW,941.100.,PL31 2NR,BERRYCOOMBE ROAD,,BODMIN,Admin
A5001393,PLYMOUTH MC,945.100.,PL9 7XX,BREAKWATER ROAD,,PLYMOUTH,Admin
A5001395,PLYMOUTH RTW,945.101.,PL9 7XX,BREAKWATER ROAD,,PLYMOUTH,Admin
A5001391,PLYMOUTH OFF/ST/MED,945.102.,PL9 7HJ,"BREAKWATER ROAD,",,PLYMOUTH,Admin
A5001366,FALMOUTH DO,946.100.,TR11 4TT,"BICKLAND INDUSTRIAL ESTATE,",,FALMOUTH,Admin
A5001245,ST IVES TR DO,947.100.,TR26 2XX,PENBEAGLE INDUSTRIAL ESTATE,,ST IVES,Admin
A5001,AECOM,Customer,EH3 5DA,1 TANFIELD,,EDINBURGH,Admin
A5001348,EX-TUFFNELLS - NORWICH,Not.Known.,NR6 6AG,23 VULCAN ROAD SOUTH,,NORWICH,Admin
